{
    "links": {
        "self": "http://www.neowsapp.com/rest/v1/neo/54049797?api_key=iIulBulltgU6a56xZRHN4H3l9WmuAYTsLGpBGhQ2"
    },
    "id": "54049797",
    "neo_reference_id": "54049797",
    "name": "(2020 OB5)",
    "designation": "2020 OB5",
    "nasa_jpl_url": "http://ssd.jpl.nasa.gov/sbdb.cgi?sstr=54049797",
    "absolute_magnitude_h": 27.39,
    "estimated_diameter": {
        "kilometers": {
            "estimated_diameter_min": 0.0088420909,
            "estimated_diameter_max": 0.0197715164
        },
        "meters": {
            "estimated_diameter_min": 8.8420909266,
            "estimated_diameter_max": 19.771516375
        },
        "miles": {
            "estimated_diameter_min": 0.0054942189,
            "estimated_diameter_max": 0.0122854469
        },
        "feet": {
            "estimated_diameter_min": 29.0094855955,
            "estimated_diameter_max": 64.8671817838
        }
    },
    "is_potentially_hazardous_asteroid": false,
    "close_approach_data": [
        {
            "close_approach_date": "1974-08-07",
            "close_approach_date_full": "1974-Aug-07 01:05",
            "epoch_date_close_approach": 145069500000,
            "relative_velocity": {
                "kilometers_per_second": "16.0682212764",
                "kilometers_per_hour": "57845.5965950033",
                "miles_per_hour": "35943.0041731563"
            },
            "miss_distance": {
                "astronomical": "0.230009232",
                "lunar": "89.473591248",
                "kilometers": "34408891.18753584",
                "miles": "21380693.548000992"
            },
            "orbiting_body": "Earth"
        },
        {
            "close_approach_date": "2020-07-18",
            "close_approach_date_full": "2020-Jul-18 21:49",
            "epoch_date_close_approach": 1595108940000,
            "relative_velocity": {
                "kilometers_per_second": "9.6400771583",
                "kilometers_per_hour": "34704.2777699801",
                "miles_per_hour": "21563.8885954635"
            },
            "miss_distance": {
                "astronomical": "0.0159774639",
                "lunar": "6.2152334571",
                "kilometers": "2390194.567441893",
                "miles": "1485198.0346604034"
            },
            "orbiting_body": "Earth"
        },
        {
            "close_approach_date": "2101-04-06",
            "close_approach_date_full": "2101-Apr-06 04:03",
            "epoch_date_close_approach": 4142203380000,
            "relative_velocity": {
                "kilometers_per_second": "16.5827219145",
                "kilometers_per_hour": "59697.798892141",
                "miles_per_hour": "37093.8906505084"
            },
            "miss_distance": {
                "astronomical": "0.2480772971",
                "lunar": "96.5020685719",
                "kilometers": "37111835.241517177",
                "miles": "23060225.1022319626"
            },
            "orbiting_body": "Earth"
        }
    ],
    "orbital_data": {
        "orbit_id": "2",
        "orbit_determination_date": "2020-07-28 06:42:57",
        "first_observation_date": "2020-07-26",
        "last_observation_date": "2020-07-27",
        "data_arc_in_days": 1,
        "observations_used": 24,
        "orbit_uncertainty": "8",
        "minimum_orbit_intersection": ".00443804",
        "jupiter_tisserand_invariant": "4.004",
        "epoch_osculation": "2459057.5",
        "eccentricity": ".4612462371857469",
        "semi_major_axis": "1.748734777398361",
        "inclination": "1.620457698509291",
        "ascending_node_longitude": "302.5904031832433",
        "orbital_period": "844.6647053497917",
        "perihelion_distance": ".9421374414875126",
        "perihelion_argument": "311.3195729516011",
        "aphelion_distance": "2.55533211330921",
        "perihelion_time": "2459015.471155262266",
        "mean_anomaly": "17.91288781187852",
        "mean_motion": ".4262046202710899",
        "equinox": "J2000",
        "orbit_class": {
            "orbit_class_type": "APO",
            "orbit_class_description": "Near-Earth asteroid orbits which cross the Earth’s orbit similar to that of 1862 Apollo",
            "orbit_class_range": "a (semi-major axis) > 1.0 AU; q (perihelion) < 1.017 AU"
        }
    },
    "is_sentry_object": false
}